[{"OBJECT_NAME":"QIANFAN-39","OBJECT_ID":"2024-232D","EPOCH":"2026-03-09T21:25:16.059072","MEAN_MOTION":14.25440879,"ECCENTRICITY":0.00171102,"INCLINATION":89.0064,"RA_OF_ASC_NODE":27.3413,"ARG_OF_PERICENTER":145.5992,"MEAN_ANOMALY":214.6313,"EPHEMERIS_TYPE":0,"CLASSIFICATION_TYPE":"U","NORAD_CAT_ID":62240,"ELEMENT_SET_NO":999,"REV_AT_EPOCH":11380,"BSTAR":0.00022622412,"MEAN_MOTION_DOT":5.49e-6,"MEAN_MOTION_DDOT":0},{"OBJECT_NAME":"CZ-6A DEB","OBJECT_ID":"2025-096D","EPOCH":"2026-03-09T21:18:58.478976","MEAN_MOTION":14.26536009,"ECCENTRICITY":0.00137183,"INCLINATION":85.9901,"RA_OF_ASC_NODE":229.3143,"ARG_OF_PERICENTER":18.094,"MEAN_ANOMALY":342.0736,"EPHEMERIS_TYPE":0,"CLASSIFICATION_TYPE":"U","NORAD_CAT_ID":63921,"ELEMENT_SET_NO":999,"REV_AT_EPOCH":4296,"BSTAR":0.00019721677,"MEAN_MOTION_DOT":4.95e-6,"MEAN_MOTION_DDOT":0}]
